ONEWEB-0710             
1 55173U 23004AK  24041.88420504  .00000002  00000+0 -27788-4 0  9990
2 55173  87.9242 176.3954 0001323 100.4348 259.6933 13.17650457 54688
ONEWEB-0711             
1 55174U 23004AL  24041.90502655 -.00000247  00000+0 -73365-3 0  9995
2 55174  87.8994 191.4854 0001324 141.8404 218.2818 13.11418502 53478
ONEWEB-0713             
1 55175U 23004AM  24041.92287412  .00000152  00000+0  39446-3 0  9994
2 55175  87.8996 191.4898 0001450 118.8231 241.3043 13.11418028 53460
ONEWEB-0715             
1 55176U 23004AN  24041.91800394 -.00000073  00000+0 -24221-3 0  9993
2 55176  87.8996 191.4912 0001589 110.6096 249.5203 13.11418168 53508
ONEWEB-0716             
1 55177U 23004AP  24041.87788730  .00000068  00000+0  14209-3 0  9995
2 55177  87.9245 176.3854 0001847 100.5901 259.5439 13.17649591 54688
ONEWEB-0717             
1 55178U 23004AQ  24041.93642340  .00000003  00000+0 -24125-4 0  9998
2 55178  87.9243 176.3403 0000877 140.8856 219.2339 13.17649359 54746
ONEWEB-0719             
1 55179U 23004AR  24041.87154510 -.00000197  00000+0 -54038-3 0  9999
2 55179  87.9242 176.3400 0001785 109.6713 250.4611 13.17648226 54682
ONEWEB-0530             
1 55796U 23029A   24041.67508747  .00000096  00000+0  20422-3 0  9990
2 55796  87.9145  85.1538 0001697 115.6152 244.5157 13.20769281 47954
